JILIN-1 GAOFEN 3H       
1 46460U 20065G   25249.28518294  .00031714  00000+0  75866-3 0  9994
2 46460  97.2722 294.5433 0009571 307.6774  52.3605 15.41363327275827
JILIN-1 GAOFEN 3J       
1 46462U 20065J   25249.27839958  .00044616  00000+0  86087-3 0  9990
2 46462  97.2742 297.3778 0006543  96.4258 263.7738 15.47674700275944
HAIYANG-2C              
1 46469U 20066A   25249.26420131 -.00000011  00000+0  64166-4 0  9993
2 46469  65.9955 202.1886 0013852 280.8600  79.0910 13.83376388250227
HJ-2A                   
1 46478U 20067A   25249.28869763  .00001459  00000+0  21689-3 0  9992
2 46478  97.9090 328.9786 0004569  88.2188 271.9545 14.76461737266369
HJ-2B                   
1 46479U 20067B   25249.25705653  .00001516  00000+0  22506-3 0  9990
2 46479  97.9145 329.7662 0001071 155.5607 204.5654 14.76456083266363
GONETS-M 17             
1 46486U 20068A   25249.29168966  .00000028  00000+0  13361-3 0  9999
2 46486  82.5017 164.1091 0022038 297.7601  62.1244 12.42860603223897
GONETS-M 18             
1 46487U 20068B   25249.25890832  .00000031  00000+0  15391-3 0  9999
2 46487  82.4971 163.3612 0019353 294.8566  65.0501 12.42886307223875
GONETS-M 19             
1 46488U 20068C   25249.23417227  .00000020  00000+0  76515-4 0  9995
2 46488  82.4996 163.7676 0013247 311.6483  48.3462 12.42861370223973
DEKART                  
1 46493U 20068H   25249.27015166  .00014759  00000+0  52795-3 0  9998
2 46493  97.8648 235.1330 0010385 196.0105 164.0807 15.28859032272264
NORBI                   
1 46494U 20068J   25249.27559218  .00020330  00000+0  62054-3 0  9991
2 46494  97.8619 238.3882 0009551 180.5177 179.6057 15.33913841272477
SALSAT                  
1 46495U 20068K   25249.23060880  .00011454  00000+0  47556-3 0  9997
2 46495  97.8684 231.4671 0010221 204.2506 155.8250 15.23969566272022
ICEYE-X6                
1 46497U 20068M   25249.25280255  .00006370  00000+0  49594-3 0  9996
2 46497  98.0733 225.3076 0004333 350.1133  10.0005 15.01605896270574
NETSAT-4                
1 46504U 20068U   25249.21359256  .00019489  00000+0  62152-3 0  9999
2 46504  97.8521 232.2125 0004785 236.9066 123.1716 15.32557621272117
NETSAT-3                
1 46505U 20068V   25249.22744137  .00020216  00000+0  67528-3 0  9999
2 46505  97.8526 230.9580 0004312 254.3507 105.7257 15.31059437272064
NETSAT-1                
1 46506U 20068W   25248.91515944  .00012781  00000+0  50366-3 0  9997
2 46506  97.8559 227.7794 0004122 285.9277  74.1506 15.25731611271828
NETSAT-2                
1 46507U 20068X   25249.22142752  .00022786  00000+0  72960-3 0  9996
2 46507  97.8524 231.6654 0002653 279.5044  80.5896 15.32401710272059
TIANQI-6                
1 46810U 20076D   25248.97731055  .00006144  00000+0  43500-3 0  9991
2 46810  35.0015 349.1745 0011110 191.2063 168.8400 15.04157584265712
KSM1-C                  
1 46906U 20081B   25249.29734992  .00012789  00000+0  57952-3 0  9990
2 46906  36.8950   3.5523 0003480   4.1169 355.9607 15.20250148265840
KSM1-D                  
1 46907U 20081C   25249.32089049  .00011194  00000+0  52672-3 0  9994
2 46907  36.8979   7.9754 0004802  21.1222 338.9723 15.18993555265825
KSM1-A                  
1 46912U 20081H   25249.31741200  .00011910  00000+0  54742-3 0  9999
2 46912  36.8976   4.1331 0002701  99.8932 260.2120 15.19786468265871
R2                      
1 46913U 20081J   25248.67095305  .00010622  00000+0  49272-3 0  9997
2 46913  36.9005   6.9219 0007642  40.7635 319.3683 15.19489754268595
KSM1-B                  
1 46914U 20081K   25249.02923389  .00010141  00000+0  47962-3 0  9990
2 46914  36.9024   9.7887 0006309  43.7260 316.3986 15.18844692268874
GONETS-M 20             
1 47227U 20091A   25249.25189156  .00000073  00000+0  45232-3 0  9991
2 47227  82.5019 118.9449 0021520  79.3485 281.0017 12.42853035215809
GONETS-M 21             
1 47228U 20091B   25249.30657808  .00000071  00000+0  43867-3 0  9992
2 47228  82.4943 117.7949 0015314  92.1436 268.1398 12.42871082215800
GONETS-M 22             
1 47229U 20091C   25249.27949503  .00000053  00000+0  30721-3 0  9990
2 47229  82.5002 118.5760 0022383  74.5102 285.8448 12.42859912215750
CUBEL                   
1 47448U 21006AM  25249.10026400  .00023397  00000+0  71463-3 0  9998
2 47448  97.2800 297.9461 0009446 116.6605 243.5607 15.33852325256097
ASTROCAST-0103          
1 47487U 21006CC  25249.25162438  .00041218  00000+0  69836-3 0  9992
2 47487  97.2963 308.7426 0005711 103.6463 256.5425 15.51408585256751
ASTROCAST-0104          
1 47519U 21006DK  25249.12273414  .00103020  00000+0  16199-2 0  9994
2 47519  97.2857 306.9347 0004299 109.8256 250.3461 15.53250598256684
ARKTIKA-M 1             
1 47719U 21016A   25246.38975133 -.00000134  00000+0  00000+0 0  9993
2 47719  63.1607  97.4931 7149598 268.8202  16.1856  2.00602919 33032
STARLINK-2342           
1 47883U 21021Z   25248.79152018  .00004435  00000+0  31652-3 0  9995
2 47883  53.0558  26.6600 0001297  79.9551 280.1585 15.06393379248428
GRUS-1B                 
1 47934U 21022C   25249.26373177  .00001565  00000+0  13709-3 0  9991
2 47934  97.5727 136.2866 0016693 192.9541 167.1256 14.97993272243374
2021-022F               
1 47937U 21022F   25249.24636272  .00011526  00000+0  43926-3 0  9992
2 47937  97.4122 145.9509 0011972  30.7883 329.4056 15.26799440246298
WILDTRACKCUBE-SIMBA     
1 47941U 21022K   25249.27619851  .00061258  00000+0  10501-2 0  9993
2 47941  97.4109 156.0759 0007937  12.4755 347.6692 15.50972121246912
UNISAT-7                
1 47945U 21022P   25249.25021999  .00016490  00000+0  55060-3 0  9993
2 47945  97.4097 147.7323 0011482  21.9815 338.1916 15.31053058246279
2021-022Q               
1 47946U 21022Q   25249.28512876  .00141063  00000+0  12772-2 0  9993
2 47946  97.4112 162.7507 0002087  29.9059 330.2320 15.67619114247372
2021-022X               
1 47953U 21022X   25249.29007184  .00034689  00000+0  82270-3 0  9999
2 47953  97.4091 151.3636 0010285  20.9225 339.2441 15.41599565246379
2021-022AC              
1 47958U 21022AC  25249.27161036  .00044064  00000+0  92097-3 0  9995
2 47958  97.4043 152.5661 0009299  18.6575 341.5013 15.45322791245556
GLOBAL-9                
1 47971U 21023G   25249.10176763  .00024134  00000+0  65000-3 0  9996
2 47971  44.9848  34.2731 0001335 312.9845  47.0930 15.37474719251112
AII-BRAVO               
1 48270U 21034C   25249.15191958  .00006563  00000+0  53113-3 0  9997
2 48270  97.5942 305.5352 0005701 154.5052 205.6454 15.00069835236988
TYVAK-182A              
1 48271U 21034D   25249.12508009  .00007666  00000+0  58501-3 0  9995
2 48271  97.6127 308.0222 0005817 215.1149 144.9693 15.02263210237120
CSS (TIANHE)            
1 48274U 21035A   25249.27781637  .00027778  00000+0  34817-3 0  9995
2 48274  41.4637 249.1516 0005911 297.4252  62.5984 15.59112519248802
TYVAK-0130              
1 48606U 21041BF  25249.27422671  .00009298  00000+0  41524-3 0  9991
2 48606  53.0234 259.3719 0009850   8.6743 351.4420 15.22016722237064
HAIYANG-2D              
1 48621U 21043A   25249.31856147  .00000011  00000+0  84187-4 0  9991
2 48621  65.9983 291.4379 0007887 274.2489  85.7678 13.83372175217285
2021-050D               
1 48843U 21050D   25249.32573088  .00009492  00000+0  40279-3 0  9991
2 48843  97.3638 326.2969 0005047  26.5798 333.5697 15.23295301235743
BRIK-II                 
1 48876U 21058F   25249.18260355  .00185407  00000+0  99599-3 0  9999
2 48876  60.6550 161.5148 0016309  42.3959 317.8411 15.79198781234307
TYVAK-0173              
1 48892U 21059P   25249.11801489  .00004274  00000+0  56713-3 0  9993
2 48892  95.9973  31.3721 0007815 273.5203  86.5120 14.80130446226198
TUBIN                   
1 48900U 21059X   25249.25768384  .00083690  00000+0  71531-3 0  9998
2 48900  97.6766  66.2428 0002733 255.6052 104.4906 15.69217652233907
MANDRAKE 2 ABLE         
1 48907U 21059AE  25249.24719804  .00020831  00000+0  49059-3 0  9995
2 48907  97.6963  55.3102 0004984 318.2519  41.8346 15.41961551233181
MANDRAKE 2 BAKER        
1 48908U 21059AF  25249.20541806  .00026137  00000+0  57150-3 0  9993
2 48908  97.6958  56.6806 0004222 298.6827  61.3996 15.44138417233255
PACE-1                  
1 48909U 21059AG  25248.98799381  .00028574  00000+0  51291-3 0  9998
2 48909  97.6847  57.6042 0003883 282.8812  77.2004 15.49860573233411
YAM-3                   
1 48915U 21059AN  25249.03196561  .00013747  00000+0  34958-3 0  9990
2 48915  97.6919  54.3298 0005261 305.0454  55.0297 15.39725458233135
FARADAY_PHOENIX         
1 48924U 21059AX  25248.97872688  .00022587  00000+0  45899-3 0  9991
2 48924  97.6914  59.4960 0007402 286.2730  73.7704 15.46307528233411
DEMO8 (TENZING)         
1 48951U 21059CA  25249.04958241  .00018268  00000+0  42205-3 0  9999
2 48951  97.6994  58.5544 0008030 305.9833  54.0668 15.42547926233323
ASTROCAST-0201          
1 48954U 21059CD  25249.00472641  .00053734  00000+0  62297-3 0  9993
2 48954  97.6559  64.1128 0003732 302.1102  57.9792 15.61638997233865
ASTROCAST-0203          
1 48955U 21059CE  25249.03192432  .00069062  00000+0  79006-3 0  9991
2 48955  97.6564  63.6610 0002703 253.4605 106.6356 15.61928142233867
ASTROCAST-0205          
1 48960U 21059CK  25249.22045345  .00070331  00000+0  79265-3 0  9996
2 48960  97.6534  64.1563 0005523 240.3716 119.6992 15.62297609233907
NAPA-2                  
1 48963U 21059CN  25249.30498576  .00033757  00000+0  59809-3 0  9999
2 48963  97.6854  56.9790 0005201 284.6274  75.4399 15.50191234233352
W-CUBE                  
1 48965U 21059CQ  25249.04367555  .00309834  39219-4  85626-3 0  9991
2 48965  97.6620  70.1692 0004372 243.3325 116.7501 15.93849686234130
JILIN-1 GAOFEN 3D01     
1 49004U 21061B   25249.27752049  .00110111  00000+0  11696-2 0  9994
2 49004  97.3392 325.5450 0007508 239.8796 120.1720 15.63669339232438
